start=new Date('2023-02-19T00:00:00.000Z').valueOf();
sats=[{"SEMIMAJOR_AXIS":"6925.600","SITE":"AFETR","COUNTRY_CODE":"US","TLE_LINE2":"2 48641  53.0534  86.4530 0001415  83.6551 276.4599 15.06318034 96570","LAUNCH_DATE":"2021-05-26","NORAD_CAT_ID":"48641","OBJECT_ID":"2021-044D","BSTAR":"0.00172380000000","GP_ID":"225929050","MEAN_ANOMALY":"276.4599","ECCENTRICITY":"0.00014150","EPOCH":"2023-02-18T19:45:09.330624","DECAY_DATE":null,"MEAN_ELEMENT_THEORY":"SGP4","CENTER_NAME":"EARTH","REV_AT_EPOCH":"9657","CLASSIFICATION_TYPE":"U","MEAN_MOTION_DOT":"0.00025431","MEAN_MOTION":"15.06318034","PERIAPSIS":"546.485","OBJECT_TYPE":"PAYLOAD","ELEMENT_SET_NO":"999","TLE_LINE1":"1 48641U 21044D   23049.82302466  .00025431  00000-0  17238-2 0  9991","PERIOD":"95.597","EPHEMERIS_TYPE":"0","RA_OF_ASC_NODE":"86.4530","INCLINATION":"53.0534","RCS_SIZE":"LARGE","FILE":"3807194","REF_FRAME":"TEME","TIME_SYSTEM":"UTC","MEAN_MOTION_DDOT":"0.0000000000000","OBJECT_NAME":"STARLINK-2754","ARG_OF_PERICENTER":"83.6551","APOAPSIS":"548.445"},{"MEAN_ANOMALY":"268.1870","GP_ID":"225921716","BSTAR":"0.00027355000000","DECAY_DATE":null,"EPOCH":"2023-02-18T12:07:22.387008","ECCENTRICITY":"0.00013310","MEAN_ELEMENT_THEORY":"SGP4","CLASSIFICATION_TYPE":"U","REV_AT_EPOCH":"9562","CENTER_NAME":"EARTH","COUNTRY_CODE":"US","SITE":"AFETR","SEMIMAJOR_AXIS":"6925.364","OBJECT_ID":"2021-044E","LAUNCH_DATE":"2021-05-26","TLE_LINE2":"2 48642  53.0553  87.8760 0001331  91.9271 268.1870 15.06395093 95625","NORAD_CAT_ID":"48642","RCS_SIZE":"LARGE","INCLINATION":"53.0553","FILE":"3807124","ARG_OF_PERICENTER":"91.9271","MEAN_MOTION_DDOT":"0.0000000000000","OBJECT_NAME":"STARLINK-2646","REF_FRAME":"TEME","TIME_SYSTEM":"UTC","APOAPSIS":"548.150","PERIAPSIS":"546.307","MEAN_MOTION":"15.06395093","MEAN_MOTION_DOT":"0.00003795","TLE_LINE1":"1 48642U 21044E   23049.50512022  .00003795  00000-0  27355-3 0  9999","ELEMENT_SET_NO":"999","OBJECT_TYPE":"PAYLOAD","RA_OF_ASC_NODE":"87.8760","EPHEMERIS_TYPE":"0","PERIOD":"95.592"},{"PERIAPSIS":"546.378","MEAN_MOTION":"15.06356895","MEAN_MOTION_DOT":"0.00014979","TLE_LINE1":"1 48643U 21044F   23049.48669444  .00014979  00000-0  10235-2 0  9992","ELEMENT_SET_NO":"999","OBJECT_TYPE":"PAYLOAD","RA_OF_ASC_NODE":"87.9466","EPHEMERIS_TYPE":"0","PERIOD":"95.595","RCS_SIZE":"LARGE","INCLINATION":"53.0528","FILE":"3807124","MEAN_MOTION_DDOT":"0.0000000000000","OBJECT_NAME":"STARLINK-2704","ARG_OF_PERICENTER":"90.1205","REF_FRAME":"TEME","TIME_SYSTEM":"UTC","APOAPSIS":"548.313","SITE":"AFETR","COUNTRY_CODE":"US","SEMIMAJOR_AXIS":"6925.481","OBJECT_ID":"2021-044F","NORAD_CAT_ID":"48643","TLE_LINE2":"2 48643  53.0528  87.9466 0001397  90.1205 269.9944 15.06356895 95620","LAUNCH_DATE":"2021-05-26","GP_ID":"225921963","BSTAR":"0.00102350000000","MEAN_ANOMALY":"269.9944","DECAY_DATE":null,"ECCENTRICITY":"0.00013970","EPOCH":"2023-02-18T11:40:50.399616","MEAN_ELEMENT_THEORY":"SGP4","CLASSIFICATION_TYPE":"U","CENTER_NAME":"EARTH","REV_AT_EPOCH":"9562"},{"REV_AT_EPOCH":"9562","CENTER_NAME":"EARTH","CLASSIFICATION_TYPE":"U","MEAN_ELEMENT_THEORY":"SGP4","EPOCH":"2023-02-18T11:36:52.741728","ECCENTRICITY":"0.00012600","DECAY_DATE":null,"MEAN_ANOMALY":"268.3582","GP_ID":"225923211","BSTAR":"0.00000154240000","TLE_LINE2":"2 48644  53.0525  87.9704 0001260  91.7551 268.3582 15.06396738 95624","LAUNCH_DATE":"2021-05-26","NORAD_CAT_ID":"48644","OBJECT_ID":"2021-044G","SEMIMAJOR_AXIS":"6925.359","COUNTRY_CODE":"US","SITE":"AFETR","APOAPSIS":"548.096","REF_FRAME":"TEME","TIME_SYSTEM":"UTC","OBJECT_NAME":"STARLINK-2695","MEAN_MOTION_DDOT":"0.0000000000000","ARG_OF_PERICENTER":"91.7551","FILE":"3807124","INCLINATION":"53.0525","RCS_SIZE":"LARGE","PERIOD":"95.592","EPHEMERIS_TYPE":"0","RA_OF_ASC_NODE":"87.9704","OBJECT_TYPE":"PAYLOAD","ELEMENT_SET_NO":"999","TLE_LINE1":"1 48644U 21044G   23049.48394377 -.00000258  00000-0  15424-5 0  9997","MEAN_MOTION_DOT":"-0.00000258","PERIAPSIS":"546.351","MEAN_MOTION":"15.06396738"},{"MEAN_ANOMALY":"278.5287","GP_ID":"225929515","BSTAR":"0.00008489700000","DECAY_DATE":null,"ECCENTRICITY":"0.00013770","EPOCH":"2023-02-18T14:42:38.756448","MEAN_ELEMENT_THEORY":"SGP4","CLASSIFICATION_TYPE":"U","CENTER_NAME":"EARTH","REV_AT_EPOCH":"9654","SEMIMAJOR_AXIS":"6925.334","SITE":"AFETR","COUNTRY_CODE":"US","TLE_LINE2":"2 48645  53.0524  87.3998 0001377  81.5858 278.5287 15.06404648 96546","NORAD_CAT_ID":"48645","LAUNCH_DATE":"2021-05-26","OBJECT_ID":"2021-044H","INCLINATION":"53.0524","RCS_SIZE":"LARGE","FILE":"3807199","REF_FRAME":"TEME","TIME_SYSTEM":"UTC","ARG_OF_PERICENTER":"81.5858","MEAN_MOTION_DDOT":"0.0000000000000","OBJECT_NAME":"STARLINK-2733","APOAPSIS":"548.153","MEAN_MOTION":"15.06404648","PERIAPSIS":"546.246","MEAN_MOTION_DOT":"0.00000983","ELEMENT_SET_NO":"999","TLE_LINE1":"1 48645U 21044H   23049.61294857  .00000983  00000-0  84897-4 0  9998","OBJECT_TYPE":"PAYLOAD","EPHEMERIS_TYPE":"0","PERIOD":"95.592","RA_OF_ASC_NODE":"87.3998"},{"COUNTRY_CODE":"US","SITE":"AFETR","SEMIMAJOR_AXIS":"6925.380","OBJECT_ID":"2021-044J","NORAD_CAT_ID":"48646","TLE_LINE2":"2 48646  53.0519  86.5239 0001946  90.0464 270.0748 15.06389677 96576","LAUNCH_DATE":"2021-05-26","EPOCH":"2023-02-18T19:24:00.591552","ECCENTRICITY":"0.00019460","DECAY_DATE":null,"BSTAR":"0.00162060000000","GP_ID":"225929395","MEAN_ANOMALY":"270.0748","REV_AT_EPOCH":"9657","CENTER_NAME":"EARTH","CLASSIFICATION_TYPE":"U","MEAN_ELEMENT_THEORY":"SGP4","MEAN_MOTION_DOT":"0.00023933","PERIAPSIS":"545.898","MEAN_MOTION":"15.06389677","RA_OF_ASC_NODE":"86.5239","PERIOD":"95.593","EPHEMERIS_TYPE":"0","OBJECT_TYPE":"PAYLOAD","ELEMENT_SET_NO":"999","TLE_LINE1":"1 48646U 21044J   23049.80834018  .00023933  00000-0  16206-2 0  9996","FILE":"3807215","RCS_SIZE":"LARGE","INCLINATION":"53.0519","APOAPSIS":"548.593","MEAN_MOTION_DDOT":"0.0000000000000","ARG_OF_PERICENTER":"90.0464","OBJECT_NAME":"STARLINK-2732","REF_FRAME":"TEME","TIME_SYSTEM":"UTC"},{"MEAN_MOTION":"15.06427504","PERIAPSIS":"546.156","MEAN_MOTION_DOT":"0.00001681","ELEMENT_SET_NO":"999","TLE_LINE1":"1 48647U 21044K   23049.80459384  .00001681  00000-0  13162-3 0  9991","OBJECT_TYPE":"PAYLOAD","RA_OF_ASC_NODE":"86.5392","EPHEMERIS_TYPE":"0","PERIOD":"95.590","RCS_SIZE":"LARGE","INCLINATION":"53.0532","FILE":"3807215","MEAN_MOTION_DDOT":"0.0000000000000","ARG_OF_PERICENTER":"86.5639","OBJECT_NAME":"STARLINK-2691","REF_FRAME":"TEME","TIME_SYSTEM":"UTC","APOAPSIS":"548.102","SITE":"AFETR","COUNTRY_CODE":"US","SEMIMAJOR_AXIS":"6925.264","OBJECT_ID":"2021-044K","NORAD_CAT_ID":"48647","TLE_LINE2":"2 48647  53.0532  86.5392 0001405  86.5639 273.5511 15.06427504 96574","LAUNCH_DATE":"2021-05-26","GP_ID":"225929776","MEAN_ANOMALY":"273.5511","BSTAR":"0.00013162000000","DECAY_DATE":null,"ECCENTRICITY":"0.00014050","EPOCH":"2023-02-18T19:18:36.907776","MEAN_ELEMENT_THEORY":"SGP4","CLASSIFICATION_TYPE":"U","CENTER_NAME":"EARTH","REV_AT_EPOCH":"9657"},{"PERIAPSIS":"546.252","MEAN_MOTION":"15.06405861","MEAN_MOTION_DOT":"0.00020501","ELEMENT_SET_NO":"999","TLE_LINE1":"1 48648U 21044L   23049.81940304  .00020501  00000-0  13910-2 0  9992","OBJECT_TYPE":"PAYLOAD","RA_OF_ASC_NODE":"86.6363","EPHEMERIS_TYPE":"0","PERIOD":"95.592","RCS_SIZE":"LARGE","INCLINATION":"53.0532","FILE":"3807250","MEAN_MOTION_DDOT":"0.0000000000000","ARG_OF_PERICENTER":"97.4166","OBJECT_NAME":"STARLINK-2521","REF_FRAME":"TEME","TIME_SYSTEM":"UTC","APOAPSIS":"548.140","SITE":"AFETR","COUNTRY_CODE":"US","SEMIMAJOR_AXIS":"6925.331","OBJECT_ID":"2021-044L","TLE_LINE2":"2 48648  53.0532  86.6363 0001363  97.4166 262.6977 15.06405861 96514","NORAD_CAT_ID":"48648","LAUNCH_DATE":"2021-05-26","BSTAR":"0.00139100000000","GP_ID":"225930171","MEAN_ANOMALY":"262.6977","DECAY_DATE":null,"ECCENTRICITY":"0.00013630","EPOCH":"2023-02-18T19:39:56.422656","MEAN_ELEMENT_THEORY":"SGP4","CLASSIFICATION_TYPE":"U","CENTER_NAME":"EARTH","REV_AT_EPOCH":"9651"},{"OBJECT_TYPE":"PAYLOAD","TLE_LINE1":"1 48649U 21044M   23049.53553215  .00019039  00000-0  12953-2 0  9993","ELEMENT_SET_NO":"999","PERIOD":"95.595","EPHEMERIS_TYPE":"0","RA_OF_ASC_NODE":"87.7430","MEAN_MOTION_DOT":"0.00019039","PERIAPSIS":"546.486","MEAN_MOTION":"15.06350958","REF_FRAME":"TEME","TIME_SYSTEM":"UTC","MEAN_MOTION_DDOT":"0.0000000000000","ARG_OF_PERICENTER":"74.1188","OBJECT_NAME":"STARLINK-2673","APOAPSIS":"548.241","INCLINATION":"53.0536","RCS_SIZE":"LARGE","FILE":"3807124","NORAD_CAT_ID":"48649","TLE_LINE2":"2 48649  53.0536  87.7430 0001267  74.1188 285.9941 15.06350958 95621","LAUNCH_DATE":"2021-05-26","OBJECT_ID":"2021-044M","SEMIMAJOR_AXIS":"6925.499","SITE":"AFETR","COUNTRY_CODE":"US","MEAN_ELEMENT_THEORY":"SGP4","CENTER_NAME":"EARTH","REV_AT_EPOCH":"9562","CLASSIFICATION_TYPE":"U","GP_ID":"225922954","BSTAR":"0.00129530000000","MEAN_ANOMALY":"285.9941","EPOCH":"2023-02-18T12:51:09.977760","ECCENTRICITY":"0.00012670","DECAY_DATE":null},{"FILE":"3807124","INCLINATION":"53.0531","RCS_SIZE":"LARGE","APOAPSIS":"547.983","TIME_SYSTEM":"UTC","REF_FRAME":"TEME","MEAN_MOTION_DDOT":"0.0000000000000","OBJECT_NAME":"STARLINK-2672","ARG_OF_PERICENTER":"85.3819","MEAN_MOTION_DOT":"0.00020870","MEAN_MOTION":"15.06416590","PERIAPSIS":"546.342","PERIOD":"95.591","EPHEMERIS_TYPE":"0","RA_OF_ASC_NODE":"88.3498","OBJECT_TYPE":"PAYLOAD","TLE_LINE1":"1 48650U 21044N   23049.39916593  .00020870  00000-0  14152-2 0  9999","ELEMENT_SET_NO":"999","ECCENTRICITY":"0.00011850","EPOCH":"2023-02-18T09:34:47.936352","DECAY_DATE":null,"GP_ID":"225921717","MEAN_ANOMALY":"274.7306","BSTAR":"0.00141520000000","REV_AT_EPOCH":"9560","CENTER_NAME":"EARTH","CLASSIFICATION_TYPE":"U","MEAN_ELEMENT_THEORY":"SGP4","SEMIMAJOR_AXIS":"6925.298","SITE":"AFETR","COUNTRY_CODE":"US","TLE_LINE2":"2 48650  53.0531  88.3498 0001185  85.3819 274.7306 15.06416590 95607","LAUNCH_DATE":"2021-05-26","NORAD_CAT_ID":"48650","OBJECT_ID":"2021-044N"}];
